P/2012 K3 (Gibbs),e,13.1882,125.8201,172.2402,3.628717,0.1425852,0.42243054,183.3953,02/23.0/2023,2000,g 15.0,4.0
# From MPC 88326
P/2012 NJ (La Sagra),e,84.5534,315.6007,338.3867,8.466252,0.0400099,0.84671610,156.2230,02/23.0/2023,2000,g 14.5,4.0
# From MPC 81470
P/2012 O1 (McNaught),e,7.4268,91.9245,238.3362,3.541792,0.1478664,0.59422045,214.8544,02/23.0/2023,2000,g 17.5,4.0
# From MPC 80899
P/2012 O2 (McNaught),e,24.4664,120.6826,183.4774,3.626428,0.1427202,0.53191969,198.2830,02/23.0/2023,2000,g 17.0,4.0
# From MPC 82320
P/2012 T2 (PANSTARRS),e,12.5683,73.7167,310.8124,5.727224,0.0719098,0.16239760,257.6701,02/23.0/2023,2000,g 10.0,4.0
# From MPC 80900
P/2012 T3 (PANSTARRS),e,9.5572,114.3637,195.5441,6.151433,0.0646011,0.61659997,254.8464,02/23.0/2023,2000,g 15.0,4.0
# From MPC 82720
P/2012 U2 (PANSTARRS),e,10.7597,185.3259,228.2655,7.131267,0.0517552,0.50009036,194.1085,02/23.0/2023,2000,g 12.5,4.0
# From MPC 84024
P/2012 US27 (Siding Spring),e,39.3697,49.2081,0.8331,5.164312,0.0839818,0.64829864,309.0877,02/23.0/2023,2000,g 13.5,4.0
# From MPC 82721
P/2012 WA34 (Lemmon-PANSTARRS),e,6.0821,93.5552,356.6164,4.679935,0.0973519,0.34372315,346.7858,02/23.0/2023,2000,g 13.5,4.0
# From MPC 82721
P/2013 AL76 (Catalina),e,144.8751,146.0191,27.0401,6.500124,0.0594732,0.68589168,222.2122,02/23.0/2023,2000,g 16.0,4.0
# From MPEC 2022-K19
P/2013 EW90,e,31.7918,160.2885,346.0249,4.112069,0.1181989,0.19470130,87.3543,02/23.0/2023,2000,g 14.3,4.0
# From MPC 91612
P/2013 G1 (Kowalski),e,5.4576,221.3054,51.5475,6.898247,0.0543996,0.51103582,182.9899,02/23.0/2023,2000,g 11.0,4.0
# From MPC 84025
P/2013 G4 (PANSTARRS),e,5.9160,339.6319,214.6177,4.437892,0.1054239,0.40915743,26.2253,02/23.0/2023,2000,g 15.0,4.0
# From MPC 91613
P/2013 J2 (McNaught),e,15.5085,289.3352,37.8832,6.223331,0.0634848,0.65724951,219.8154,02/23.0/2023,2000,g 13.0,4.0
# From MPC 86229
P/2013 N3 (PANSTARRS),e,2.1734,17.4776,323.9770,7.395928,0.0490021,0.59291499,161.2940,02/23.0/2023,2000,g 13.0,4.0
# From MPC 85834
P/2013 N5 (PANSTARRS),e,23.4616,187.1552,176.9493,6.797020,0.0556194,0.73249732,195.5930,02/23.0/2023,2000,g 17.0,4.0
# From MPC 85834
P/2013 P1 (PANSTARRS),e,18.7219,160.6043,138.2544,8.583295,0.0391943,0.60439753,142.9656,02/23.0/2023,2000,g 12.0,4.0
# From MPEC 2022-V95
P/2013 R3 (Catalina-PANSTARRS),e,0.8650,341.9732,11.3038,3.031810,0.1867029,0.27562327,286.9253,02/23.0/2023,2000,g 14.0,4.0
# From unp
P/2013 R3-A (Catalina-PANSTARRS),e,0.8641,341.9280,11.3827,3.031565,0.1867256,0.27555394,286.9860,02/23.0/2023,2000,g  9.0,4.0
# From MPEC 2015-M77
P/2013 R3-B (Catalina-PANSTARRS),e,0.8654,341.9840,11.3174,3.031785,0.1867053,0.27559924,286.9199,02/23.0/2023,2000,g  9.0,4.0
# From MPC 85835
P/2013 T1 (PANSTARRS),e,24.3028,10.0802,346.1747,5.856525,0.0695415,0.62427464,242.3718,02/23.0/2023,2000,g 16.5,4.0
# From MPC 86643
P/2013 T2 (Schwartz),e,9.4569,0.8018,345.5870,3.491989,0.1510410,0.50101109,178.2312,02/23.0/2023,2000,g 16.0,4.0
# From MPC 91613
P/2013 W1 (PANSTARRS),e,4.6969,117.8390,1.2245,3.487283,0.1513468,0.59296135,135.5686,02/23.0/2023,2000,g 17.5,4.0
# From MPC101095
P/2013 YG46 (Spacewatch),e,7.8576,48.8363,242.6051,3.273703,0.1663969,0.45461736,7.9373,02/23.0/2023,2000,g 10.0,4.0
# From MPC 89728
P/2014 A2 (Hill),e,24.5482,106.6341,356.1454,5.927009,0.0683047,0.64577426,233.8158,02/23.0/2023,2000,g 15.0,4.0
# From MPC 92981
P/2014 A3 (PANSTARRS),e,13.7172,229.9778,214.1478,4.607687,0.0996505,0.24652415,354.1762,02/23.0/2023,2000,g 12.0,4.0
# From MPC102095
P/2014 C1 (TOTAS),e,2.6933,167.8199,23.9585,3.031517,0.1867300,0.45141652,262.9136,02/23.0/2023,2000,g 15.5,4.0
# From MPEC 2022-WD2
C/2014 F3 (Sheppard-Trujillo),e,6.5357,326.3135,4.5909,14.55151,0.0177559,0.60759995,11.2716,02/23.0/2023,2000,g  6.0,4.0
# From MPC 98560
P/2014 L2 (NEOWISE),e,5.1983,149.3457,182.7230,6.305642,0.0622458,0.64781087,195.3265,02/23.0/2023,2000,g 12.0,4.0
# From MPC 90769
P/2014 L3 (Hill),e,6.2660,115.4965,178.7086,8.178835,0.0421373,0.77255336,133.1562,02/23.0/2023,2000,g 16.0,4.0
# From MPC 91614
P/2014 M4 (PANSTARRS),e,3.3440,263.1795,148.0528,5.867919,0.0693391,0.59570910,206.4257,02/23.0/2023,2000,g 15.0,4.0
# From MPEC 2022-K19
P/2014 MG4 (Spacewatch-PANSTARRS),e,9.3662,311.7239,299.0256,5.013546,0.0877984,0.25887271,310.6172,02/23.0/2023,2000,g  9.5,4.0
# From MPC 98560
P/2014 O3 (PANSTARRS),e,7.7951,87.6388,204.7921,7.577681,0.0472498,0.38424109,152.7866,02/23.0/2023,2000,g 10.5,4.0
# From MPEC 2023-A50
C/2014 OG392 (PANSTARRS),e,9.0330,145.8052,254.4304,12.25540,0.0229728,0.18641232,10.1129,02/23.0/2023,2000,g  6.0,4.0
# From MPC 91616
P/2014 U4 (PANSTARRS),e,6.4290,11.8858,347.8463,3.509136,0.1499353,0.46480689,110.8541,02/23.0/2023,2000,g 18.0,4.0
# From MPEC 2023-C45
C/2014 UN271 (Bernardinelli-Bernstein),h,01/21.6309/2031,95.4299,189.8973,326.2251,1.001260,10.947561,2000,2.5,3.2
# From MPC 95211
P/2014 V1 (PANSTARRS),e,22.5239,166.1983,177.6618,5.479447,0.0768421,0.53438576,226.5404,02/23.0/2023,2000,g 14.0,4.0
# From MPC 93586
P/2014 W1 (PANSTARRS),e,8.8358,246.2243,152.1206,4.468014,0.1043596,0.38949971,328.7826,02/23.0/2023,2000,g 15.5,4.0
# From MPC105542
P/2014 W4 (PANSTARRS),e,15.2835,33.3897,67.5876,6.587617,0.0582923,0.35351276,152.1937,02/23.0/2023,2000,g 11.0,4.0
# From MPC 94281
P/2014 X1 (Elenin),e,26.0507,61.5693,33.8646,6.204357,0.0637762,0.70970957,189.7097,02/23.0/2023,2000,g 15.0,4.0
# From MPC 92275
P/2015 A3 (PANSTARRS),e,172.5422,277.3390,249.4802,7.815838,0.0451067,0.85032491,132.0496,02/23.0/2023,2000,g 20.0,4.0
# From MPC 99270
P/2015 B1 (PANSTARRS),e,18.0558,352.9143,188.8594,9.489336,0.0337171,0.36642476,91.8511,02/23.0/2023,2000,g  8.5,4.0
# From MPC109141
P/2015 B4 (Lemmon-PANSTARRS),e,1.7639,266.0699,227.2321,8.515516,0.0396632,0.56071148,116.7043,02/23.0/2023,2000,g 11.0,4.0
# From MPC101096
P/2015 C1 (TOTAS-Gibbs),e,13.9216,348.7908,178.0904,6.573586,0.0584791,0.56117990,167.4605,02/23.0/2023,2000,g 12.5,4.0
# From MPC109141
P/2015 D5 (Kowalski),e,20.5368,74.0744,39.6463,8.952574,0.0367944,0.49010634,119.5608,02/23.0/2023,2000,g  9.0,4.0
# From MPC 96866
P/2015 D6 (Lemmon-PANSTARRS),e,20.2077,45.8447,124.9964,7.134942,0.0517152,0.36142805,144.7599,02/23.0/2023,2000,g 10.5,4.0
# From MPEC 2021-P47
P/2015 HG16 (PANSTARRS),e,18.8836,57.3272,47.4084,4.787103,0.0941011,0.35198446,303.1991,02/23.0/2023,2000,g 12.5,4.0
# From MPC 95213
P/2015 K5 (PANSTARRS),e,39.9424,134.2230,106.3060,6.726682,0.0564940,0.55178536,159.5992,02/23.0/2023,2000,g 13.5,4.0
# From MPC107684
P/2015 M2 (PANSTARRS),e,3.9692,86.5824,226.0196,7.244566,0.0505459,0.17960612,137.4781,02/23.0/2023,2000,g  8.5,4.0
# From MPEC 2021-P47
C/2015 O1 (PANSTARRS),h,02/20.2056/2018,127.1671,299.8222,89.5186,1.001357,3.719768,2000,6.5,4.0
# From MPC 99819
P/2015 P4 (PANSTARRS),e,8.7179,104.6701,280.6880,6.046675,0.0662871,0.58575799,171.4797,02/23.0/2023,2000,g 14.0,4.0
# From MPEC 2022-K19
P/2015 PD229 (Cameron-ISON),e,2.0247,342.6641,352.7081,7.194108,0.0510786,0.32739806,140.2763,02/23.0/2023,2000,g 11.5,2.0
# From MPC 96867
P/2015 Q2 (Pimentel),e,146.5521,228.5407,244.6553,7.353456,0.0494273,0.75071911,134.6998,02/23.0/2023,2000,g 15.5,4.0
# From MPC 98562
P/2015 R1 (PANSTARRS),e,22.6996,48.3212,300.5915,5.880731,0.0691126,0.63421769,193.0843,02/23.0/2023,2000,g 14.0,4.0
# From MPC 95734
P/2015 R2 (PANSTARRS),e,15.4845,168.5955,149.8607,4.485133,0.1037627,0.45271177,291.3600,02/23.0/2023,2000,g 14.5,4.0
# From MPC 96280
P/2015 T3 (PANSTARRS),e,13.0937,120.5019,178.6330,4.326181,0.1095335,0.50818108,359.9227,12/21.0/2014,2000,g 14.0,4.0
# From MPC102953
P/2015 TO19 (Lemmon-PANSTARRS),e,6.5012,321.6238,89.2028,4.551474,0.1015023,0.35943380,258.0812,02/23.0/2023,2000,g 14.0,4.0
# From MPC110080
P/2015 TP200 (LINEAR),e,8.7802,7.0159,82.4385,7.264184,0.0503412,0.53636140,116.1795,02/23.0/2023,2000,g 11.0,4.0
# From MPC101098
P/2015 W2 (Catalina),e,11.6108,294.1331,117.5735,7.290706,0.0500668,0.63535223,135.0920,02/23.0/2023,2000,g 13.0,4.0
# From MPEC 2022-OB6
C/2015 XY1 (Lemmon),e,148.8517,281.5658,196.1377,16617,0.0000005,0.99952301,0.0000,04/25.3718/2018,2000,g  5.5,4.0
# From MPEC 2022-OB6
P/2015 X3 (PANSTARRS),e,24.4059,77.2678,306.7753,5.002863,0.0880798,0.44009026,242.2611,02/23.0/2023,2000,g 15.0,4.0
# From MPC115881
P/2015 X6 (PANSTARRS),e,4.5651,106.9314,329.7855,2.752160,0.2158706,0.17323759,185.3729,02/23.0/2023,2000,g 16.0,4.0
# From MPC100282
P/2016 A2 (Christensen),e,26.4041,291.6182,141.2859,4.753578,0.0950984,0.27095459,267.4567,02/23.0/2023,2000,g 11.5,4.0
# From MPEC 2022-OB6
P/2016 A3 (PANSTARRS),e,8.5112,187.2181,340.9013,7.878752,0.0445675,0.38604484,94.8970,02/23.0/2023,2000,g 10.0,4.0
# From MPC102098
P/2016 A7 (PANSTARRS),e,16.6035,221.4974,352.5140,5.035341,0.0872290,0.56450400,223.4278,02/23.0/2023,2000,g 16.0,4.0
# From MPC109143
P/2016 BA14 (PANSTARRS),e,18.8968,180.5134,351.9714,3.026821,0.1871647,0.66438215,115.3004,02/23.0/2023,2000,g 21.0,4.0
# From MPEC 2021-P47
P/2016 G1 (PANSTARRS),e,10.9711,204.0173,111.1507,2.582942,0.2374281,0.21065135,166.9784,02/23.0/2023,2000,g 14.0,4.0
# From MPEC 2017-D91
P/2016 J1-A (PANSTARRS),e,14.3294,199.8078,47.1097,3.173097,0.1743729,0.22771108,63.9792,02/23.0/2023,2000,g 16.5,4.0
# From MPEC 2017-A77
P/2016 J1-B (PANSTARRS),e,14.3322,199.8127,47.0012,3.172734,0.1744028,0.22756166,64.1278,02/23.0/2023,2000,g 17.0,4.0
# From MPEC 2022-ED3
C/2016 M1 (PANSTARRS),e,90.8604,92.2644,209.9346,42745,0.0000001,0.99994820,0.0000,08/10.4794/2018,2000,g  5.0,4.0
# From MPEC 2021-P47
C/2016 N6 (PANSTARRS),e,105.8633,298.9060,162.5801,962.7580,0.0000330,0.99723726,0.0000,07/17.4203/2018,2000,g  7.0,4.0
# From MPC102099
P/2016 P1 (PANSTARRS),e,24.4027,319.4992,270.5664,3.200345,0.1721508,0.28929983,106.9993,02/23.0/2023,2000,g 15.0,4.0
# From MPEC 2023-D41
C/2016 Q2 (PANSTARRS),h,05/12.3864/2021,109.3805,322.3121,84.5573,1.003000,7.081861,2000,6.0,4.0
# From MPEC 2021-N06
C/2016 R2 (PANSTARRS),e,58.3367,80.5107,33.0926,478.6794,0.0000941,0.99457660,0.0000,05/09.2915/2018,2000,g  7.0,4.0
